SatCatId,ObjectName,LaunchYear,OrbitalPeriod,LaunchMass,StatusCode,Inclination,Status,UcsData,OrbitClassEstimated,LaunchSiteCountry,Owner,UseType,Purpose,LaunchVehicleClass,TLE1,TLE2,MeanMotion,Eccentricity,OrbitClass
47275,ONEWEB-0129,2020,109.72,148.0,+,87.9,Active,1,LEO,Russia,UK,Commercial,Communications,Soyuz,1 47275U 20100T   23191.43088428 -.00000052  00000+0 -18088-3 0  9997,2 47275  87.9000 203.8825 0003179 118.5496 241.5953 13.12441236123960,13.12441236,0.0003179,LEO
47276,ONEWEB-0130,2020,109.72,148.0,+,87.9,Active,1,LEO,Russia,UK,Commercial,Communications,Soyuz,1 47276U 20100U   23191.45629259 -.00000361  00000+0 -10380-2 0  9992,2 47276  87.9000 203.8720 0001903  91.1394 268.9952 13.12444075123934,13.12444075,0.0001903,LEO
47277,ONEWEB-0131,2020,109.72,148.0,+,87.9,Active,1,LEO,Russia,UK,Commercial,Communications,Soyuz,1 47277U 20100V   23191.45416811 -.00000396  00000+0 -11372-2 0  9991,2 47277  87.8999 203.8164 0001816  87.5872 272.5464 13.12440043123970,13.12440043,0.0001816,LEO
47278,ONEWEB-0132,2020,109.72,148.0,+,87.9,Active,1,LEO,Russia,UK,Commercial,Communications,Soyuz,1 47278U 20100W   23191.48384543  .00000398  00000+0  10717-2 0  9993,2 47278  87.9000 203.8124 0002087  95.4133 264.7234 13.12442162123871,13.12442162,0.0002087,LEO
47279,ONEWEB-0133,2020,109.72,148.0,+,87.9,Active,1,LEO,Russia,UK,Commercial,Communications,Soyuz,1 47279U 20100X   23191.42454347  .00000151  00000+0  38387-3 0  9999,2 47279  87.8994 203.8571 0001905  88.5370 271.5977 13.12441130124025,13.1244113,0.0001905,LEO
47280,ONEWEB-0134,2020,109.72,148.0,+,87.9,Active,1,LEO,Russia,UK,Commercial,Communications,Soyuz,1 47280U 20100Y   23191.46901920  .00000064  00000+0  14348-3 0  9993,2 47280  87.8997 203.8356 0001762  97.7716 262.3613 13.12444554124004,13.12444554,0.0001762,LEO
47281,ONEWEB-0135,2020,109.72,148.0,+,87.9,Active,1,LEO,Russia,UK,Commercial,Communications,Soyuz,1 47281U 20100Z   23191.13230489 -.00000035  00000+0 -13187-3 0  9993,2 47281  87.8985 203.9078 0001965  95.2732 264.8620 13.12438902123981,13.12438902,0.0001965,LEO
47282,ONEWEB-0136,2020,109.72,148.0,+,87.9,Active,1,LEO,Russia,UK,Commercial,Communications,Soyuz,1 47282U 20100AA  23190.46732968 -.00000132  00000+0 -40135-3 0  9999,2 47282  87.9000 204.0745 0001703 108.8895 251.2419 13.12444783123828,13.12444783,0.0001703,LEO
47283,ONEWEB-0137,2020,109.72,148.0,+,87.9,Active,1,LEO,Russia,UK,Commercial,Communications,Soyuz,1 47283U 20100AB  23191.41819760  .00000323  00000+0  86267-3 0  9998,2 47283  87.9001 203.8526 0002113  92.3564 267.7807 13.12441205123852,13.12441205,0.0002113,LEO
47284,ONEWEB-0138,2020,109.72,148.0,+,87.9,Active,1,LEO,Russia,UK,Commercial,Communications,Soyuz,1 47284U 20100AC  23191.39489578  .00000113  00000+0  28008-3 0  9992,2 47284  87.9000 203.8680 0001984  94.1382 265.9973 13.12444390123937,13.1244439,0.0001984,LEO
47285,ONEWEB-0139,2020,109.72,148.0,+,87.9,Active,1,LEO,Russia,UK,Commercial,Communications,Soyuz,1 47285U 20100AD  23191.44359718 -.00000390  00000+0 -11207-2 0  9992,2 47285  87.8985 203.8893 0001815  94.3305 265.8030 13.12443063124014,13.12443063,0.0001815,LEO
47286,ONEWEB-0140,2020,109.72,148.0,+,87.9,Active,1,LEO,Russia,UK,Commercial,Communications,Soyuz,1 47286U 20100AE  23190.47368868  .00000117  00000+0  28979-3 0  9991,2 47286  87.9001 204.0250 0001901  95.3204 264.8141 13.12442916123848,13.12442916,0.0001901,LEO
47287,ONEWEB-0141,2020,109.72,148.0,+,87.9,Active,1,LEO,Russia,UK,Commercial,Communications,Soyuz,1 47287U 20100AF  23191.10582862  .00000519  00000+0  14082-2 0  9990,2 47287  87.9000 203.8976 0002363  86.2924 273.8474 13.12441598123924,13.12441598,0.0002363,LEO
47288,ONEWEB-0142,2020,109.72,148.0,+,87.9,Active,1,LEO,Russia,UK,Commercial,Communications,Soyuz,1 47288U 20100AG  23191.09736888  .00000443  00000+0  11948-2 0  9992,2 47288  87.9002 203.9514 0002069  93.1836 266.9530 13.12445751123918,13.12445751,0.0002069,LEO
47289,ONEWEB-0143,2020,109.72,148.0,+,87.9,Active,1,LEO,Russia,UK,Commercial,Communications,Soyuz,1 47289U 20100AH  23191.43300315 -.00000152  00000+0 -45884-3 0  9999,2 47289  87.9000 203.8444 0001978  88.7623 271.3732 13.12441374123933,13.12441374,0.0001978,LEO
47290,ONEWEB-0144,2020,109.72,148.0,+,87.9,Active,1,LEO,Russia,UK,Commercial,Communications,Soyuz,1 47290U 20100AJ  23191.10051623  .00000484  00000+0  13112-2 0  9994,2 47290  87.9001 203.9269 0002071 102.6521 257.4839 13.12445466123816,13.12445466,0.0002071,LEO
47291,ONEWEB-0145,2020,109.72,148.0,+,87.9,Active,1,LEO,Russia,UK,Commercial,Communications,Soyuz,1 47291U 20100AK  23191.45207102 -.00000399  00000+0 -11445-2 0  9992,2 47291  87.8993 203.8498 0002085  92.7968 267.3399 13.12443809124055,13.12443809,0.0002085,LEO
47292,ONEWEB-0146,2020,109.72,148.0,+,87.9,Active,1,LEO,Russia,UK,Commercial,Communications,Soyuz,1 47292U 20100AL  23191.29534520 -.00000375  00000+0 -10769-2 0  9994,2 47292  87.9003 203.9048 0002002  74.0461 286.0887 13.12443414123940,13.12443414,0.0002002,LEO
47293,ONEWEB-0147,2020,109.72,148.0,+,87.9,Active,1,LEO,Russia,UK,Commercial,Communications,Soyuz,1 47293U 20100AM  23191.49230053  .00000353  00000+0  94642-3 0  9998,2 47293  87.9000 203.8242 0001741 102.3548 257.7775 13.12441417123866,13.12441417,0.0001741,LEO
47296,YUANGUANG,2020,93.78,9.0,+,97.43,Active,1,LEO,PRC,China,Commercial,Technology Development,Long March,1 47296U 20102A   23191.51995803  .00019197  00000+0  55785-3 0  9998,2 47296  97.4322 292.3378 0006492 156.2031 203.9513 15.35494259141602,15.35494259,0.0006492,LEO
47297,HAISI 1,2020,94.11,180.0,+,97.43,Active,1,LEO,PRC,China,Commercial,Earth Observation,Long March,1 47297U 20102B   23191.51755163  .00013270  00000+0  45577-3 0  9996,2 47297  97.4292 290.1547 0006148 147.0391 213.1233 15.30232562141455,15.30232562,0.0006148,LEO
47298,XJY-7,2020,94.53,-1.0,+,97.39,Active,1,LEO,PRC,China,Government,Technology Development,Long March,1 47298U 20102C   23191.50329612  .00011390  00000+0  48108-3 0  9996,2 47298  97.3883 288.7122 0004716  41.3887 318.7706 15.23406621141692,15.23406621,0.0004716,LEO
47299,TIANQI-8,2020,93.78,20.0,+,97.43,Active,1,LEO,PRC,China,Civil,Technology Development,Long March,1 47299U 20102D   23191.56477843  .00017531  00000+0  50912-3 0  9992,2 47299  97.4343 293.5720 0004921 128.1522 232.0165 15.35541942141675,15.35541942,0.0004921,LEO
47300,ET-SMART-RSS,2020,92.58,9.0,+,97.44,Active,1,LEO,PRC,China,Government,Earth Observation,Long March,1 47300U 20102E   23191.53050216  .00071177  00000+0  10305-2 0  9990,2 47300  97.4352 299.6831 0002042 134.6449 225.4972 15.55651685142064,15.55651685,0.0002042,LEO
47302,YAOGAN-33,2020,98.68,-1.0,+,98.17,Active,1,LEO,PRC,China,Military,Earth Observation,Long March,1 47302U 20103A   23191.52287444  .00000461  00000+0  10723-3 0  9990,2 47302  98.1690  82.2981 0001532 117.3056 242.8300 14.59301680134885,14.5930168,0.0001532,LEO
47303,WEINA 2,2020,98.6,-1.0,+,98.17,Active,0,LEO,PRC,China,Unknown,Unknown,Unknown,1 47303U 20103B   23191.53654701  .00000923  00000+0  20017-3 0  9996,2 47303  98.1723  82.8388 0002274   1.8380 358.2828 14.60402444134903,14.60402444,0.0002274,LEO
47306,TURKSAT 5A,2021,1436.1,3500.0,+,0.02,Active,1,GSO,USA,Turkey,Commercial,Communications,Falcon,1 47306U 21001A   23191.00744066  .00000151  00000+0  00000+0 0  9992,2 47306   0.0201  83.8126 0000157 170.5901  66.8590  1.00267902  9223,1.00267902,1.57e-05,GEO
47309,CAPE-3,2021,93.35,1.0,+,60.68,Active,1,LEO,Western Range Airspace,USA,Civil,Technology Development,LauncherOne,1 47309U 21002A   23191.13133681  .00030767  00000+0  70279-3 0  9990,2 47309  60.6776 331.4044 0008407 235.8541 124.1759 15.42689348137823,15.42689348,0.0008407,LEO
47311,RADFXSAT-2 (AO-109),2021,93.5,-1.0,+,60.68,Active,0,LEO,Western Range Airspace,USA,Unknown,Unknown,LauncherOne,1 47311U 21002C   23190.97386244  .00023579  00000+0  58874-3 0  9999,2 47311  60.6813 330.8651 0007285 217.0033 143.0560 15.40135374137807,15.40135374,0.0007285,LEO
47315,OBJECT G,2021,93.06,-1.0,-,60.68,Inactive,0,LEO,Western Range Airspace,USA,Unknown,Unknown,Unknown,1 47315U 21002G   23190.74817982  .00033861  00000+0  65867-3 0  9991,2 47315  60.6820 318.0573 0005481 199.5779 160.5110 15.47398081138019,15.47398081,0.0005481,LEO
47317,OBJECT J,2021,93.56,1.0,-,60.68,Inactive,1,LEO,Western Range Airspace,USA,Civil/Government,Technology Development,LauncherOne,1 47317U 21002J   23190.96857262  .00023312  00000+0  60121-3 0  9990,2 47317  60.6785 335.2250 0009914 228.7670 131.2572 15.39129825137716,15.39129825,0.0009914,LEO
47318,OBJECT K,2021,93.58,1.0,-,60.68,Inactive,1,LEO,Western Range Airspace,USA,Civil/Government,Technology Development,LauncherOne,1 47318U 21002K   23191.12532551  .00022957  00000+0  59875-3 0  9999,2 47318  60.6795 334.8731 0009914 227.6454 132.3801 15.38792916137730,15.38792916,0.0009914,LEO
47319,CP12 (EXOCUBE 2),2021,93.55,4.0,+,60.68,Active,1,LEO,Western Range Airspace,USA,Civil/Government,Space Science,LauncherOne,1 47319U 21002L   23190.79073753  .00021745  00000+0  55885-3 0  9997,2 47319  60.6795 333.8287 0007968 222.9558 137.0915 15.39291214137695,15.39291214,0.0007968,LEO
47321,TIANTONG-1 3,2021,1436.08,4600.0,+,3.59,Active,1,GSO,PRC,China,Government,Communications,Long March,1 47321U 21003A   23191.34841122 -.00000155  00000+0  00000+0 0  9994,2 47321   3.5877 308.9206 0003433 173.8092  12.2157  1.00272763  9218,1.00272763,0.0003433,GSO
47346,GMS-T,2021,109.37,50.0,+,90.05,Active,1,LEO,New Zealand,Germany,Commercial,Communications,Electron,1 47346U 21004A   23191.42072417  .00000023  00000+0  38332-4 0  9991,2 47346  90.0548 232.2897 0004533  85.9273 274.2376 13.16609952118568,13.16609952,0.0004533,LEO
47350,STARLINK-2011,2021,95.59,260.0,+,53.05,Active,1,LEO,USA,USA,Commercial,Communications,Falcon,1 47350U 21005B   23191.04430635  .00005617  00000+0  39574-3 0  9997,2 47350  53.0530 112.4789 0001473  89.4649 270.6508 15.06395928136965,15.06395928,0.0001473,LEO
